CCSDS_OMM_VERS = 2.0
CREATION_DATE  = 
ORIGINATOR     = 

OBJECT_NAME    = STARLINK-36969
OBJECT_ID      = 2026-050A
CENTER_NAME    = EARTH
REF_FRAME      = TEME
TIME_SYSTEM    = UTC
MEAN_ELEMENT_THEORY = SGP/SGP4

EPOCH          = 2026-03-19T13:41:02.541120
MEAN_MOTION    = 15.97343210
ECCENTRICITY   = .0000488
INCLINATION    = 53.1618
RA_OF_ASC_NODE = 232.5443
ARG_OF_PERICENTER = 318.1927
MEAN_ANOMALY   = 41.9065

EPHEMERIS_TYPE = 0
CLASSIFICATION_TYPE = U
NORAD_CAT_ID   = 68167
ELEMENT_SET_NO = 999
REV_AT_EPOCH   = 203
BSTAR          = -.16788E-2
MEAN_MOTION_DOT = -.762286E-2
MEAN_MOTION_DDOT = .19812E-3

CCSDS_OMM_VERS = 2.0
CREATION_DATE  = 
ORIGINATOR     = 

OBJECT_NAME    = STARLINK-36984
OBJECT_ID      = 2026-050B
CENTER_NAME    = EARTH
REF_FRAME      = TEME
TIME_SYSTEM    = UTC
MEAN_ELEMENT_THEORY = SGP/SGP4

EPOCH          = 2026-03-19T13:40:45.953184
MEAN_MOTION    = 15.97468217
ECCENTRICITY   = .0000565
INCLINATION    = 53.1620
RA_OF_ASC_NODE = 232.5441
ARG_OF_PERICENTER = 333.0752
MEAN_ANOMALY   = 27.0248

EPHEMERIS_TYPE = 0
CLASSIFICATION_TYPE = U
NORAD_CAT_ID   = 68168
ELEMENT_SET_NO = 999
REV_AT_EPOCH   = 203
BSTAR          = -.16463E-2
MEAN_MOTION_DOT = -.752821E-2
MEAN_MOTION_DDOT = .194E-3

CCSDS_OMM_VERS = 2.0
CREATION_DATE  = 
ORIGINATOR     = 

OBJECT_NAME    = STARLINK-37077
OBJECT_ID      = 2026-050C
CENTER_NAME    = EARTH
REF_FRAME      = TEME
TIME_SYSTEM    = UTC
MEAN_ELEMENT_THEORY = SGP/SGP4

EPOCH          = 2026-03-19T13:40:26.349024
MEAN_MOTION    = 15.97622802
ECCENTRICITY   = .0000745
INCLINATION    = 53.1619
RA_OF_ASC_NODE = 232.5425
ARG_OF_PERICENTER = 335.0992
MEAN_ANOMALY   = 25.0002

EPHEMERIS_TYPE = 0
CLASSIFICATION_TYPE = U
NORAD_CAT_ID   = 68169
ELEMENT_SET_NO = 999
REV_AT_EPOCH   = 203
BSTAR          = -.16046E-2
MEAN_MOTION_DOT = -.740191E-2
MEAN_MOTION_DDOT = .18853E-3

CCSDS_OMM_VERS = 2.0
CREATION_DATE  = 
ORIGINATOR     = 

OBJECT_NAME    = STARLINK-37003
OBJECT_ID      = 2026-050D
CENTER_NAME    = EARTH
REF_FRAME      = TEME
TIME_SYSTEM    = UTC
MEAN_ELEMENT_THEORY = SGP/SGP4

EPOCH          = 2026-03-19T13:40:06.896064
MEAN_MOTION    = 15.97788708
ECCENTRICITY   = .0000461
INCLINATION    = 53.1620
RA_OF_ASC_NODE = 232.5407
ARG_OF_PERICENTER = 327.9149
MEAN_ANOMALY   = 32.1853

EPHEMERIS_TYPE = 0
CLASSIFICATION_TYPE = U
NORAD_CAT_ID   = 68170
ELEMENT_SET_NO = 999
REV_AT_EPOCH   = 203
BSTAR          = -.15382E-2
MEAN_MOTION_DOT = -.716345E-2
MEAN_MOTION_DDOT = .17815E-3

CCSDS_OMM_VERS = 2.0
CREATION_DATE  = 
ORIGINATOR     = 

OBJECT_NAME    = STARLINK-37034
OBJECT_ID      = 2026-050E
CENTER_NAME    = EARTH
REF_FRAME      = TEME
TIME_SYSTEM    = UTC
MEAN_ELEMENT_THEORY = SGP/SGP4

EPOCH          = 2026-03-19T13:39:46.570464
MEAN_MOTION    = 15.97919140
ECCENTRICITY   = .0000585
INCLINATION    = 53.1619
RA_OF_ASC_NODE = 232.5395
ARG_OF_PERICENTER = 340.0636
MEAN_ANOMALY   = 20.0371

EPHEMERIS_TYPE = 0
CLASSIFICATION_TYPE = U
NORAD_CAT_ID   = 68171
ELEMENT_SET_NO = 999
REV_AT_EPOCH   = 203
BSTAR          = -.15903E-2
MEAN_MOTION_DOT = -.745719E-2
MEAN_MOTION_DDOT = .19165E-3

CCSDS_OMM_VERS = 2.0
CREATION_DATE  = 
ORIGINATOR     = 

OBJECT_NAME    = STARLINK-37031
OBJECT_ID      = 2026-050F
CENTER_NAME    = EARTH
REF_FRAME      = TEME
TIME_SYSTEM    = UTC
MEAN_ELEMENT_THEORY = SGP/SGP4

EPOCH          = 2026-03-19T13:39:25.217568
MEAN_MOTION    = 15.98076782
ECCENTRICITY   = .0000458
INCLINATION    = 53.1620
RA_OF_ASC_NODE = 232.5378
ARG_OF_PERICENTER = 346.3779
MEAN_ANOMALY   = 13.7239

EPHEMERIS_TYPE = 0
CLASSIFICATION_TYPE = U
NORAD_CAT_ID   = 68172
ELEMENT_SET_NO = 999
REV_AT_EPOCH   = 203
BSTAR          = -.15788E-2
MEAN_MOTION_DOT = -.746879E-2
MEAN_MOTION_DDOT = .1925E-3

CCSDS_OMM_VERS = 2.0
CREATION_DATE  = 
ORIGINATOR     = 

OBJECT_NAME    = STARLINK-37076
OBJECT_ID      = 2026-050G
CENTER_NAME    = EARTH
REF_FRAME      = TEME
TIME_SYSTEM    = UTC
MEAN_ELEMENT_THEORY = SGP/SGP4

EPOCH          = 2026-03-19T12:09:00.468288
MEAN_MOTION    = 15.98507778
ECCENTRICITY   = .0000645
INCLINATION    = 53.1615
RA_OF_ASC_NODE = 232.8571
ARG_OF_PERICENTER = 359.7564
MEAN_ANOMALY   = 0.3466

EPHEMERIS_TYPE = 0
CLASSIFICATION_TYPE = U
NORAD_CAT_ID   = 68173
ELEMENT_SET_NO = 999
REV_AT_EPOCH   = 202
BSTAR          = -.17873E-2
MEAN_MOTION_DOT = -.864982E-2
MEAN_MOTION_DDOT = .25162E-3

CCSDS_OMM_VERS = 2.0
CREATION_DATE  = 
ORIGINATOR     = 

OBJECT_NAME    = STARLINK-37078
OBJECT_ID      = 2026-050H
CENTER_NAME    = EARTH
REF_FRAME      = TEME
TIME_SYSTEM    = UTC
MEAN_ELEMENT_THEORY = SGP/SGP4

EPOCH          = 2026-03-19T13:38:45.418272
MEAN_MOTION    = 15.98372202
ECCENTRICITY   = .0000261
INCLINATION    = 53.1617
RA_OF_ASC_NODE = 232.5342
ARG_OF_PERICENTER = 74.2706
MEAN_ANOMALY   = 285.8353

EPHEMERIS_TYPE = 0
CLASSIFICATION_TYPE = U
NORAD_CAT_ID   = 68174
ELEMENT_SET_NO = 999
REV_AT_EPOCH   = 203
BSTAR          = -.16768E-2
MEAN_MOTION_DOT = -.805867E-2
MEAN_MOTION_DDOT = .22125E-3

CCSDS_OMM_VERS = 2.0
CREATION_DATE  = 
ORIGINATOR     = 

OBJECT_NAME    = STARLINK-36886
OBJECT_ID      = 2026-050J
CENTER_NAME    = EARTH
REF_FRAME      = TEME
TIME_SYSTEM    = UTC
MEAN_ELEMENT_THEORY = SGP/SGP4

EPOCH          = 2026-03-19T13:38:26.608992
MEAN_MOTION    = 15.98517353
ECCENTRICITY   = .0000812
INCLINATION    = 53.1618
RA_OF_ASC_NODE = 232.5329
ARG_OF_PERICENTER = 328.5582
MEAN_ANOMALY   = 31.5400

EPHEMERIS_TYPE = 0
CLASSIFICATION_TYPE = U
NORAD_CAT_ID   = 68175
ELEMENT_SET_NO = 999
REV_AT_EPOCH   = 203
BSTAR          = -.14987E-2
MEAN_MOTION_DOT = -.726912E-2
MEAN_MOTION_DDOT = .18427E-3

CCSDS_OMM_VERS = 2.0
CREATION_DATE  = 
ORIGINATOR     = 

OBJECT_NAME    = STARLINK-36905
OBJECT_ID      = 2026-050K
CENTER_NAME    = EARTH
REF_FRAME      = TEME
TIME_SYSTEM    = UTC
MEAN_ELEMENT_THEORY = SGP/SGP4

EPOCH          = 2026-03-19T13:38:05.675136
MEAN_MOTION    = 15.98675796
ECCENTRICITY   = .0000718
INCLINATION    = 53.1619
RA_OF_ASC_NODE = 232.5315
ARG_OF_PERICENTER = 321.9812
MEAN_ANOMALY   = 38.1167

EPHEMERIS_TYPE = 0
CLASSIFICATION_TYPE = U
NORAD_CAT_ID   = 68176
ELEMENT_SET_NO = 999
REV_AT_EPOCH   = 203
BSTAR          = -.14521E-2
MEAN_MOTION_DOT = -.710734E-2
MEAN_MOTION_DDOT = .17733E-3

CCSDS_OMM_VERS = 2.0
CREATION_DATE  = 
ORIGINATOR     = 

OBJECT_NAME    = STARLINK-36668
OBJECT_ID      = 2026-050L
CENTER_NAME    = EARTH
REF_FRAME      = TEME
TIME_SYSTEM    = UTC
MEAN_ELEMENT_THEORY = SGP/SGP4

EPOCH          = 2026-03-19T13:37:43.637088
MEAN_MOTION    = 15.98826248
ECCENTRICITY   = .0000696
INCLINATION    = 53.1621
RA_OF_ASC_NODE = 232.5297
ARG_OF_PERICENTER = 333.7333
MEAN_ANOMALY   = 26.3662

EPHEMERIS_TYPE = 0
CLASSIFICATION_TYPE = U
NORAD_CAT_ID   = 68177
ELEMENT_SET_NO = 999
REV_AT_EPOCH   = 203
BSTAR          = -.14604E-2
MEAN_MOTION_DOT = -.720821E-2
MEAN_MOTION_DDOT = .18212E-3

CCSDS_OMM_VERS = 2.0
CREATION_DATE  = 
ORIGINATOR     = 

OBJECT_NAME    = STARLINK-36677
OBJECT_ID      = 2026-050M
CENTER_NAME    = EARTH
REF_FRAME      = TEME
TIME_SYSTEM    = UTC
MEAN_ELEMENT_THEORY = SGP/SGP4

EPOCH          = 2026-03-19T13:37:24.300768
MEAN_MOTION    = 15.98898420
ECCENTRICITY   = .0000919
INCLINATION    = 53.1619
RA_OF_ASC_NODE = 232.5274
ARG_OF_PERICENTER = 18.8959
MEAN_ANOMALY   = 341.2106

EPHEMERIS_TYPE = 0
CLASSIFICATION_TYPE = U
NORAD_CAT_ID   = 68178
ELEMENT_SET_NO = 999
REV_AT_EPOCH   = 203
BSTAR          = -.18795E-2
MEAN_MOTION_DOT = -.929161E-2
MEAN_MOTION_DDOT = .28745E-3

CCSDS_OMM_VERS = 2.0
CREATION_DATE  = 
ORIGINATOR     = 

OBJECT_NAME    = STARLINK-37052
OBJECT_ID      = 2026-050N
CENTER_NAME    = EARTH
REF_FRAME      = TEME
TIME_SYSTEM    = UTC
MEAN_ELEMENT_THEORY = SGP/SGP4

EPOCH          = 2026-03-19T13:37:01.873056
MEAN_MOTION    = 15.99173693
ECCENTRICITY   = .0000847
INCLINATION    = 53.1613
RA_OF_ASC_NODE = 232.5262
ARG_OF_PERICENTER = 251.3193
MEAN_ANOMALY   = 108.7745

EPHEMERIS_TYPE = 0
CLASSIFICATION_TYPE = U
NORAD_CAT_ID   = 68179
ELEMENT_SET_NO = 999
REV_AT_EPOCH   = 203
BSTAR          = -.13225E-2
MEAN_MOTION_DOT = -.666179E-2
MEAN_MOTION_DDOT = .15892E-3

CCSDS_OMM_VERS = 2.0
CREATION_DATE  = 
ORIGINATOR     = 

OBJECT_NAME    = STARLINK-37035
OBJECT_ID      = 2026-050P
CENTER_NAME    = EARTH
REF_FRAME      = TEME
TIME_SYSTEM    = UTC
MEAN_ELEMENT_THEORY = SGP/SGP4

EPOCH          = 2026-03-19T13:36:44.886816
MEAN_MOTION    = 15.99266404
ECCENTRICITY   = .0000593
INCLINATION    = 53.1621
RA_OF_ASC_NODE = 232.5248
ARG_OF_PERICENTER = 324.9508
MEAN_ANOMALY   = 35.1483

EPHEMERIS_TYPE = 0
CLASSIFICATION_TYPE = U
NORAD_CAT_ID   = 68180
ELEMENT_SET_NO = 999
REV_AT_EPOCH   = 203
BSTAR          = -.13647E-2
MEAN_MOTION_DOT = -.69081E-2
MEAN_MOTION_DDOT = .16965E-3

CCSDS_OMM_VERS = 2.0
CREATION_DATE  = 
ORIGINATOR     = 

OBJECT_NAME    = STARLINK-37032
OBJECT_ID      = 2026-050Q
CENTER_NAME    = EARTH
REF_FRAME      = TEME
TIME_SYSTEM    = UTC
MEAN_ELEMENT_THEORY = SGP/SGP4

EPOCH          = 2026-03-19T13:36:22.448736
MEAN_MOTION    = 15.99422141
ECCENTRICITY   = .0000799
INCLINATION    = 53.1621
RA_OF_ASC_NODE = 232.5236
ARG_OF_PERICENTER = 332.8854
MEAN_ANOMALY   = 27.2135

EPHEMERIS_TYPE = 0
CLASSIFICATION_TYPE = U
NORAD_CAT_ID   = 68181
ELEMENT_SET_NO = 999
REV_AT_EPOCH   = 203
BSTAR          = -.13712E-2
MEAN_MOTION_DOT = -.700217E-2
MEAN_MOTION_DDOT = .17407E-3

